COSMOS 2251 DEB         
1 37515U 93036BMU 17345.34043163  .00000807  00000-0  25959-3 0  9994
2 37515  74.1607 319.0274 0099032 292.1021  66.9642 14.38191974433565
